{"type": "FeatureCollection", "features": [ {"type": "Feature", "properties": {"norad_id": 35593, "name": "COSMOS 2251 DEB", "group": "cosmos-2251-debris", "lat": 25.106002096535818, "lon": -54.63284167549252, "alt_km": 792.8559304885875, "timestamp": "2025-12-07T14:37:05.599870+00:00", "meta": {"OBJECT_NAME": "COSMOS 2251 DEB", "OBJECT_ID": "1993-036AML", "EPOCH": "2025-12-06T06:29:47.973696", "MEAN_MOTION": 14.25548393, "ECCENTRICITY": 0.01053072, "INCLINATION": 74.0859, "RA_OF_ASC_NODE": 300.0924, "ARG_OF_PERICENTER": 308.0252, "MEAN_ANOMALY": 51.1424, "EPHEMERIS_TYPE": 0, "CLASSIFICATION_TYPE": "U", "NORAD_CAT_ID": 35593, "ELEMENT_SET_NO": 999, "REV_AT_EPOCH": 84973, "BSTAR": 0.0026306785, "MEAN_MOTION_DOT": 6.575e-05, "MEAN_MOTION_DDOT": 0}, "tle": {"line1": "1 35593U 93036AML 25340.27069414  .00006575  00000+0  26307-2 0  9995", "line2": "2 35593  74.0859 300.0924 0105307 308.0252  51.1424 14.25548393849736"}}, "geometry": {"type": "Point", "coordinates": [-54.63284167549252, 25.106002096535818]}}, {"type": "Feature", "properties": {"norad_id": 35594, "name": "COSMOS 2251 DEB", "group": "cosmos-2251-debris", "lat": -70.16517658384713, "lon": -9.41064038046078, "alt_km": 593.8134309139059, "timestamp": "2025-12-07T14:37:05.599880+00:00", "meta": {"OBJECT_NAME": "COSMOS 2251 DEB", "OBJECT_ID": "1993-036AMM", "EPOCH": "2025-12-01T02:30:04.449024", "MEAN_MOTION": 14.8736155, "ECCENTRICITY": 0.00313469, "INCLINATION": 73.8065, "RA_OF_ASC_NODE": 130.0573, "ARG_OF_PERICENTER": 241.1394, "MEAN_ANOMALY": 118.6638, "EPHEMERIS_TYPE": 0, "CLASSIFICATION_TYPE": "U", "NORAD_CAT_ID": 35594, "ELEMENT_SET_NO": 999, "REV_AT_EPOCH": 88012, "BSTAR": 0.00176297, "MEAN_MOTION_DOT": 0.00016075, "MEAN_MOTION_DDOT": 0}, "tle": {"line1": "1 35594U 93036AMM 25335.10421816  .00016075  00000+0  17630-2 0  9995", "line2": "2 35594  73.8065 130.0573 0031346 241.1394 118.6638 14.87361550880129"}}, "geometry": {"type": "Point", "coordinates": [-9.41064038046078, -70.16517658384713]}}, {"type": "Feature", "properties": {"norad_id": 35602, "name": "COSMOS 2251 DEB", "group": "cosmos-2251-debris", "lat": -37.84573154049198, "lon": 26.13268106644966, "alt_km": 420.25796467219516, "timestamp": "2025-12-07T14:37:05.599890+00:00", "meta": {"OBJECT_NAME": "COSMOS 2251 DEB", "OBJECT_ID": "1993-036AMV", "EPOCH": "2025-12-06T20:30:24.199200", "MEAN_MOTION": 15.34790574, "ECCENTRICITY": 0.00905947, "INCLINATION": 73.9939, "RA_OF_ASC_NODE": 194.8669, "ARG_OF_PERICENTER": 261.9834, "MEAN_ANOMALY": 110.4225, "EPHEMERIS_TYPE": 0, "CLASSIFICATION_TYPE": "U", "NORAD_CAT_ID": 35602, "ELEMENT_SET_NO": 999, "REV_AT_EPOCH": 90001, "BSTAR": 0.00070654037, "MEAN_MOTION_DOT": 0.00027322, "MEAN_MOTION_DDOT": 0}, "tle": {"line1": "1 35602U 93036AMV 25340.85444675  .00027322  00000+0  70654-3 0  9994", "line2": "2 35602  73.9939 194.8669 0090594 261.9834 110.4225 15.34790574900011"}}, "geometry": {"type": "Point", "coordinates": [26.13268106644966, -37.84573154049198]}}, {"type": "Feature", "properties": {"norad_id": 35605, "name": "COSMOS 2251 DEB", "group": "cosmos-2251-debris", "lat": -47.021201948051996, "lon": -30.396298682161582, "alt_km": 459.779469308407, "timestamp": "2025-12-07T14:37:05.599900+00:00", "meta": {"OBJECT_NAME": "COSMOS 2251 DEB", "OBJECT_ID": "1993-036AMY", "EPOCH": "2025-12-06T07:28:08.851584", "MEAN_MOTION": 15.30671694, "ECCENTRICITY": 0.00298182, "INCLINATION": 73.8708, "RA_OF_ASC_NODE": 350.4904, "ARG_OF_PERICENTER": 287.5561, "MEAN_ANOMALY": 72.2383, "EPHEMERIS_TYPE": 0, "CLASSIFICATION_TYPE": "U", "NORAD_CAT_ID": 35605, "ELEMENT_SET_NO": 999, "REV_AT_EPOCH": 65873, "BSTAR": 0.0096225277, "MEAN_MOTION_DOT": 0.00300684, "MEAN_MOTION_DDOT": 0}, "tle": {"line1": "1 35605U 93036AMY 25340.31121356  .00300684  00000+0  96225-2 0  9992", "line2": "2 35605  73.8708 350.4904 0029818 287.5561  72.2383 15.30671694658737"}}, "geometry": {"type": "Point", "coordinates": [-30.396298682161582, -47.021201948051996]}}, {"type": "Feature", "properties": {"norad_id": 35606, "name": "COSMOS 2251 DEB", "group": "cosmos-2251-debris", "lat": -68.91452685692194, "lon": -29.909585974192364, "alt_km": 920.4835083673597, "timestamp": "2025-12-07T14:37:05.599910+00:00", "meta": {"OBJECT_NAME": "COSMOS 2251 DEB", "OBJECT_ID": "1993-036AMZ", "EPOCH": "2025-12-06T08:34:07.137120", "MEAN_MOTION": 13.41197641, "ECCENTRICITY": 0.04578135, "INCLINATION": 73.8109, "RA_OF_ASC_NODE": 20.9706, "ARG_OF_PERICENTER": 227.6256, "MEAN_ANOMALY": 128.5237, "EPHEMERIS_TYPE": 0, "CLASSIFICATION_TYPE": "U", "NORAD_CAT_ID": 35606, "ELEMENT_SET_NO": 999, "REV_AT_EPOCH": 60954, "BSTAR": 0.0018916944, "MEAN_MOTION_DOT": 1.924e-05, "MEAN_MOTION_DDOT": 0}, "tle": {"line1": "1 35606U 93036AMZ 25340.35702705  .00001924  00000+0  18917-2 0  9997", "line2": "2 35606  73.8109  20.9706 0457813 227.6256 128.5237 13.41197641609541"}}, "geometry": {"type": "Point", "coordinates": [-29.909585974192364, -68.91452685692194]}}, {"type": "Feature", "properties": {"norad_id": 35611, "name": "COSMOS 2251 DEB", "group": "cosmos-2251-debris", "lat": 41.44438459707867, "lon": -5.3560971036991365, "alt_km": 658.1861238467609, "timestamp": "2025-12-07T14:37:05.599920+00:00", "meta": {"OBJECT_NAME": "COSMOS 2251 DEB", "OBJECT_ID": "1993-036ANE", "EPOCH": "2025-12-06T00:29:55.775616", "MEAN_MOTION": 14.72576947, "ECCENTRICITY": 0.00221682, "INCLINATION": 74.0182, "RA_OF_ASC_NODE": 192.3968, "ARG_OF_PERICENTER": 266.2005, "MEAN_ANOMALY": 93.6633, "EPHEMERIS_TYPE": 0, "CLASSIFICATION_TYPE": "U", "NORAD_CAT_ID": 35611, "ELEMENT_SET_NO": 999, "REV_AT_EPOCH": 87191, "BSTAR": 0.003154175, "MEAN_MOTION_DOT": 0.00020171, "MEAN_MOTION_DDOT": 0}, "tle": {"line1": "1 35611U 93036ANE 25340.02078444  .00020171  00000+0  31542-2 0  9997", "line2": "2 35611  74.0182 192.3968 0022168 266.2005  93.6633 14.72576947871916"}}, "geometry": {"type": "Point", "coordinates": [-5.3560971036991365, 41.44438459707867]}}, {"type": "Feature", "properties": {"norad_id": 35614, "name": "COSMOS 2251 DEB", "group": "cosmos-2251-debris", "lat": 2.5915975389229904, "lon": -21.840155130512866, "alt_km": 726.003195346716, "timestamp": "2025-12-07T14:37:05.599930+00:00", "meta": {"OBJECT_NAME": "COSMOS 2251 DEB", "OBJECT_ID": "1993-036ANH", "EPOCH": "2025-12-05T08:35:34.166976", "MEAN_MOTION": 14.66905481, "ECCENTRICITY": 0.00762912, "INCLINATION": 73.9585, "RA_OF_ASC_NODE": 341.7759, "ARG_OF_PERICENTER": 198.0285, "MEAN_ANOMALY": 161.8178, "EPHEMERIS_TYPE": 0, "CLASSIFICATION_TYPE": "U", "NORAD_CAT_ID": 35614, "ELEMENT_SET_NO": 999, "REV_AT_EPOCH": 87621, "BSTAR": 0.0016552596, "MEAN_MOTION_DOT": 9.649e-05, "MEAN_MOTION_DDOT": 0}, "tle": {"line1": "1 35614U 93036ANH 25339.35803434  .00009649  00000+0  16553-2 0  9991", "line2": "2 35614  73.9585 341.7759 0076291 198.0285 161.8178 14.66905481876212"}}, "geometry": {"type": "Point", "coordinates": [-21.840155130512866, 2.5915975389229904]}}, {"type": "Feature", "properties": {"norad_id": 35645, "name": "COSMOS 2251 DEB", "group": "cosmos-2251-debris", "lat": 58.27925377554771, "lon": -110.38652083143397, "alt_km": 771.0749533048647, "timestamp": "2025-12-07T14:37:05.599940+00:00", "meta": {"OBJECT_NAME": "COSMOS 2251 DEB", "OBJECT_ID": "1993-036ANL", "EPOCH": "2025-12-06T14:48:53.385120", "MEAN_MOTION": 14.45430489, "ECCENTRICITY": 0.00694651, "INCLINATION": 73.9649, "RA_OF_ASC_NODE": 99.1981, "ARG_OF_PERICENTER": 257.6557, "MEAN_ANOMALY": 101.6818, "EPHEMERIS_TYPE": 0, "CLASSIFICATION_TYPE": "U", "NORAD_CAT_ID": 35645, "ELEMENT_SET_NO": 999, "REV_AT_EPOCH": 86683, "BSTAR": 0.0035668156, "MEAN_MOTION_DOT": 0.00012932, "MEAN_MOTION_DDOT": 0}, "tle": {"line1": "1 35645U 93036ANL 25340.61728455  .00012932  00000+0  35668-2 0  9992", "line2": "2 35645  73.9649  99.1981 0069465 257.6557 101.6818 14.45430489866835"}}, "geometry": {"type": "Point", "coordinates": [-110.38652083143397, 58.27925377554771]}}, {"type": "Feature", "properties": {"norad_id": 35646, "name": "COSMOS 2251 DEB", "group": "cosmos-2251-debris", "lat": 6.165487173453642, "lon": -117.62000742355484, "alt_km": 765.5056331383457, "timestamp": "2025-12-07T14:37:05.599950+00:00", "meta": {"OBJECT_NAME": "COSMOS 2251 DEB", "OBJECT_ID": "1993-036ANM", "EPOCH": "2025-12-04T12:27:05.030208", "MEAN_MOTION": 13.40795719, "ECCENTRICITY": 0.0457655, "INCLINATION": 73.8717, "RA_OF_ASC_NODE": 69.0727, "ARG_OF_PERICENTER": 180.5936, "MEAN_ANOMALY": 201.9959, "EPHEMERIS_TYPE": 0, "CLASSIFICATION_TYPE": "U", "NORAD_CAT_ID": 35646, "ELEMENT_SET_NO": 999, "REV_AT_EPOCH": 81748, "BSTAR": 0.0021754, "MEAN_MOTION_DOT": 2.2e-05, "MEAN_MOTION_DDOT": 0}, "tle": {"line1": "1 35646U 93036ANM 25338.51880822  .00002200  00000+0  21754-2 0  9994", "line2": "2 35646  73.8717  69.0727 0457655 180.5936 201.9959 13.40795719817483"}}, "geometry": {"type": "Point", "coordinates": [-117.62000742355484, 6.165487173453642]}}, {"type": "Feature", "properties": {"norad_id": 35647, "name": "COSMOS 2251 DEB", "group": "cosmos-2251-debris", "lat": -42.652488753969706, "lon": 139.41313551283574, "alt_km": 785.1069460654808, "timestamp": "2025-12-07T14:37:05.599961+00:00", "meta": {"OBJECT_NAME": "COSMOS 2251 DEB", "OBJECT_ID": "1993-036ANN", "EPOCH": "2025-12-06T04:19:05.390400", "MEAN_MOTION": 14.4357388, "ECCENTRICITY": 0.0045144, "INCLINATION": 74.0229, "RA_OF_ASC_NODE": 306.7667, "ARG_OF_PERICENTER": 47.5691, "MEAN_ANOMALY": 312.927, "EPHEMERIS_TYPE": 0, "CLASSIFICATION_TYPE": "U", "NORAD_CAT_ID": 35647, "ELEMENT_SET_NO": 999, "REV_AT_EPOCH": 67569, "BSTAR": 0.0014529978, "MEAN_MOTION_DOT": 4.961e-05, "MEAN_MOTION_DDOT": 0}, "tle": {"line1": "1 35647U 93036ANN 25340.17992350  .00004961  00000+0  14530-2 0  9990", "line2": "2 35647  74.0229 306.7667 0045144  47.5691 312.9270 14.43573880675696"}}, "geometry": {"type": "Point", "coordinates": [139.41313551283574, -42.652488753969706]}}]}